CCSDS_OMM_VERS = 2.0
CREATION_DATE  = 
ORIGINATOR     = 

OBJECT_NAME    = STARLINK-36889
OBJECT_ID      = 2026-039W
CENTER_NAME    = EARTH
REF_FRAME      = TEME
TIME_SYSTEM    = UTC
MEAN_ELEMENT_THEORY = SGP/SGP4

EPOCH          = 2026-03-05T22:00:01.999584
MEAN_MOTION    = 15.98030859
ECCENTRICITY   = .00017701
INCLINATION    = 42.9980
RA_OF_ASC_NODE = 78.2225
ARG_OF_PERICENTER = 269.9344
MEAN_ANOMALY   = 155.4393

EPHEMERIS_TYPE = 0
CLASSIFICATION_TYPE = U
NORAD_CAT_ID   = 68006
ELEMENT_SET_NO = 999
REV_AT_EPOCH   = 227
BSTAR          = -.29890275E-2
MEAN_MOTION_DOT = -.1420053E-1
MEAN_MOTION_DDOT = .60974949E-3

CCSDS_OMM_VERS = 2.0
CREATION_DATE  = 
ORIGINATOR     = 

OBJECT_NAME    = STARLINK-36592
OBJECT_ID      = 2026-039X
CENTER_NAME    = EARTH
REF_FRAME      = TEME
TIME_SYSTEM    = UTC
MEAN_ELEMENT_THEORY = SGP/SGP4

EPOCH          = 2026-03-05T22:00:01.999584
MEAN_MOTION    = 15.98162085
ECCENTRICITY   = .00018082
INCLINATION    = 42.9979
RA_OF_ASC_NODE = 78.2188
ARG_OF_PERICENTER = 265.3509
MEAN_ANOMALY   = 161.7085

EPHEMERIS_TYPE = 0
CLASSIFICATION_TYPE = U
NORAD_CAT_ID   = 68007
ELEMENT_SET_NO = 999
REV_AT_EPOCH   = 227
BSTAR          = -.29716724E-2
MEAN_MOTION_DOT = -.1422208E-1
MEAN_MOTION_DDOT = .61229101E-3

CCSDS_OMM_VERS = 2.0
CREATION_DATE  = 
ORIGINATOR     = 

OBJECT_NAME    = STARLINK-36911
OBJECT_ID      = 2026-039Y
CENTER_NAME    = EARTH
REF_FRAME      = TEME
TIME_SYSTEM    = UTC
MEAN_ELEMENT_THEORY = SGP/SGP4

EPOCH          = 2026-03-05T22:00:01.999584
MEAN_MOTION    = 15.98291825
ECCENTRICITY   = .00019104
INCLINATION    = 42.9979
RA_OF_ASC_NODE = 78.2141
ARG_OF_PERICENTER = 263.6343
MEAN_ANOMALY   = 165.2268

EPHEMERIS_TYPE = 0
CLASSIFICATION_TYPE = U
NORAD_CAT_ID   = 68008
ELEMENT_SET_NO = 999
REV_AT_EPOCH   = 227
BSTAR          = -.29397239E-2
MEAN_MOTION_DOT = -.1417287E-1
MEAN_MOTION_DDOT = .60923907E-3

CCSDS_OMM_VERS = 2.0
CREATION_DATE  = 
ORIGINATOR     = 

OBJECT_NAME    = STARLINK-36956
OBJECT_ID      = 2026-039Z
CENTER_NAME    = EARTH
REF_FRAME      = TEME
TIME_SYSTEM    = UTC
MEAN_ELEMENT_THEORY = SGP/SGP4

EPOCH          = 2026-03-05T22:00:01.999584
MEAN_MOTION    = 15.98419799
ECCENTRICITY   = .00016588
INCLINATION    = 42.9978
RA_OF_ASC_NODE = 78.2096
ARG_OF_PERICENTER = 269.0627
MEAN_ANOMALY   = 161.4995

EPHEMERIS_TYPE = 0
CLASSIFICATION_TYPE = U
NORAD_CAT_ID   = 68009
ELEMENT_SET_NO = 999
REV_AT_EPOCH   = 227
BSTAR          = -.29045183E-2
MEAN_MOTION_DOT = -.1410434E-1
MEAN_MOTION_DDOT = .6046569E-3

CCSDS_OMM_VERS = 2.0
CREATION_DATE  = 
ORIGINATOR     = 

OBJECT_NAME    = STARLINK-36953
OBJECT_ID      = 2026-039AA
CENTER_NAME    = EARTH
REF_FRAME      = TEME
TIME_SYSTEM    = UTC
MEAN_ELEMENT_THEORY = SGP/SGP4

EPOCH          = 2026-03-05T22:00:01.999584
MEAN_MOTION    = 15.98694736
ECCENTRICITY   = .00018125
INCLINATION    = 42.9977
RA_OF_ASC_NODE = 78.2000
ARG_OF_PERICENTER = 265.2275
MEAN_ANOMALY   = 169.0796

EPHEMERIS_TYPE = 0
CLASSIFICATION_TYPE = U
NORAD_CAT_ID   = 68010
ELEMENT_SET_NO = 999
REV_AT_EPOCH   = 227
BSTAR          = -.28655403E-2
MEAN_MOTION_DOT = -.1413237E-1
MEAN_MOTION_DDOT = .60862656E-3

CCSDS_OMM_VERS = 2.0
CREATION_DATE  = 
ORIGINATOR     = 

OBJECT_NAME    = STARLINK-36991
OBJECT_ID      = 2026-039AB
CENTER_NAME    = EARTH
REF_FRAME      = TEME
TIME_SYSTEM    = UTC
MEAN_ELEMENT_THEORY = SGP/SGP4

EPOCH          = 2026-03-05T22:00:01.999584
MEAN_MOTION    = 15.98825002
ECCENTRICITY   = .00018226
INCLINATION    = 42.9977
RA_OF_ASC_NODE = 78.1954
ARG_OF_PERICENTER = 266.9174
MEAN_ANOMALY   = 169.2244

EPHEMERIS_TYPE = 0
CLASSIFICATION_TYPE = U
NORAD_CAT_ID   = 68011
ELEMENT_SET_NO = 999
REV_AT_EPOCH   = 227
BSTAR          = -.2830792E-2
MEAN_MOTION_DOT = -.1406496E-1
MEAN_MOTION_DDOT = .60414219E-3

CCSDS_OMM_VERS = 2.0
CREATION_DATE  = 
ORIGINATOR     = 

OBJECT_NAME    = STARLINK-36936
OBJECT_ID      = 2026-039AC
CENTER_NAME    = EARTH
REF_FRAME      = TEME
TIME_SYSTEM    = UTC
MEAN_ELEMENT_THEORY = SGP/SGP4

EPOCH          = 2026-03-05T22:00:01.999584
MEAN_MOTION    = 15.99097871
ECCENTRICITY   = .0001882
INCLINATION    = 42.9978
RA_OF_ASC_NODE = 78.1859
ARG_OF_PERICENTER = 267.8400
MEAN_ANOMALY   = 171.8856

EPHEMERIS_TYPE = 0
CLASSIFICATION_TYPE = U
NORAD_CAT_ID   = 68012
ELEMENT_SET_NO = 999
REV_AT_EPOCH   = 227
BSTAR          = -.28097055E-2
MEAN_MOTION_DOT = -.1417637E-1
MEAN_MOTION_DDOT = .61473024E-3

CCSDS_OMM_VERS = 2.0
CREATION_DATE  = 
ORIGINATOR     = 

OBJECT_NAME    = STARLINK-36967
OBJECT_ID      = 2026-039AD
CENTER_NAME    = EARTH
REF_FRAME      = TEME
TIME_SYSTEM    = UTC
MEAN_ELEMENT_THEORY = SGP/SGP4

EPOCH          = 2026-03-05T22:00:01.999584
MEAN_MOTION    = 15.98554150
ECCENTRICITY   = .00017881
INCLINATION    = 42.9976
RA_OF_ASC_NODE = 78.2046
ARG_OF_PERICENTER = 266.2381
MEAN_ANOMALY   = 166.1323

EPHEMERIS_TYPE = 0
CLASSIFICATION_TYPE = U
NORAD_CAT_ID   = 68013
ELEMENT_SET_NO = 999
REV_AT_EPOCH   = 227
BSTAR          = -.28828749E-2
MEAN_MOTION_DOT = -.1410585E-1
MEAN_MOTION_DDOT = .60563304E-3

CCSDS_OMM_VERS = 2.0
CREATION_DATE  = 
ORIGINATOR     = 

OBJECT_NAME    = STARLINK-36985
OBJECT_ID      = 2026-039AE
CENTER_NAME    = EARTH
REF_FRAME      = TEME
TIME_SYSTEM    = UTC
MEAN_ELEMENT_THEORY = SGP/SGP4

EPOCH          = 2026-03-05T22:00:01.999584
MEAN_MOTION    = 15.98959158
ECCENTRICITY   = .00017911
INCLINATION    = 42.9978
RA_OF_ASC_NODE = 78.1909
ARG_OF_PERICENTER = 271.1833
MEAN_ANOMALY   = 166.6870

EPHEMERIS_TYPE = 0
CLASSIFICATION_TYPE = U
NORAD_CAT_ID   = 68014
ELEMENT_SET_NO = 999
REV_AT_EPOCH   = 227
BSTAR          = -.28288309E-2
MEAN_MOTION_DOT = -.1416101E-1
MEAN_MOTION_DDOT = .61260475E-3

